NORAD_CAT_ID,OBJECT_NAME,OBJECT_TYPE,EPOCH,MEAN_MOTION,ECCENTRICITY,INCLINATION,RA_OF_ASC_NODE,ARG_OF_PERICENTER,MEAN_ANOMALY,BSTAR,MEAN_MOTION_DOT,MEAN_MOTION_DDOT,TLE_LINE0,TLE_LINE1,TLE_LINE2,SEMIMAJOR_AXIS,PERIOD,APOGEE,PERIGEE,DECAYED
52538.0,STARLINK-3933,PAYLOAD,2024-05-13 05:56:39,15.08841153,0.0001186,53.2165,236.4073,76.3335,283.779,0.0025935,0.0004123,0.0,0 STARLINK-3933,1 52538U 22051F   24134.24767806  .00041230  00000-0  25935-2 0  9993,2 52538  53.2165 236.4073 0001186  76.3335 283.7790 15.08841153111055,6917.877,95.437,540.562,538.921,0.0
52538.0,STARLINK-3933,PAYLOAD,2024-05-13 13:53:34,15.08882102,0.0001122,53.2168,234.9215,74.9638,285.1478,0.0033653,0.00053741,0.0,0 STARLINK-3933,1 52538U 22051F   24134.57887132  .00053741  00000-0  33653-2 0  9990,2 52538  53.2168 234.9215 0001122  74.9638 285.1478 15.08882102111035,6917.752,95.435,540.393,538.841,0.0
52538.0,STARLINK-3933,PAYLOAD,2024-05-14 12:08:55,15.08927395,0.0001032,53.2152,230.7589,65.556,294.554,0.0020764,0.00032992,0.0,0 STARLINK-3933,1 52538U 22051F   24135.50619498  .00032992  00000-0  20764-2 0  9996,2 52538  53.2152 230.7589 0001032  65.5560 294.5540 15.08927395111247,6917.613,95.432,540.192,538.764,0.0
52538.0,STARLINK-3933,PAYLOAD,2024-05-15 05:38:08,15.08903496,0.0003815,53.2163,227.4895,81.232,278.9104,0.0014529,0.00022953,0.0,0 STARLINK-3933,1 52538U 22051F   24136.23482145  .00022953  00000-0  14529-2 0  9992,2 52538  53.2163 227.4895 0003815  81.2320 278.9104 15.08903496111352,6917.686,95.434,542.19,536.912,0.0
52538.0,STARLINK-3933,PAYLOAD,2024-05-15 11:59:40,15.08863244,0.0001007,53.2162,226.2992,97.3114,262.7993,0.0015533,0.00024535,0.0,0 STARLINK-3933,1 52538U 22051F   24136.49977436  .00024535  00000-0  15533-2 0  9996,2 52538  53.2162 226.2992 0001007  97.3114 262.7993 15.08863244111393,6917.809,95.436,540.371,538.978,0.0
52538.0,STARLINK-3933,PAYLOAD,2024-05-15 13:35:03,15.08867543,9.85e-05,53.216,226.0027,94.7506,265.3599,0.002182,0.00034636,0.0,0 STARLINK-3933,1 52538U 22051F   24136.56601396  .00034636  00000-0  21820-2 0  9992,2 52538  53.2160 226.0027 0000985  94.7506 265.3599 15.08867543111339,6917.796,95.436,540.343,538.98,0.0
52538.0,STARLINK-3933,PAYLOAD,2024-05-15 23:07:22,15.08860919,0.0001173,53.2155,224.2157,77.9678,282.1446,0.001189,0.00018696,0.0,0 STARLINK-3933,1 52538U 22051F   24136.96345326  .00018696  00000-0  11890-2 0  9998,2 52538  53.2155 224.2157 0001173  77.9678 282.1446 15.08860919111462,6917.816,95.436,540.493,538.87,0.0
52538.0,STARLINK-3933,PAYLOAD,2024-05-16 11:50:27,15.08875408,8.95e-05,53.2153,221.8365,71.7993,288.3097,0.0029739,0.00047406,0.0,0 STARLINK-3933,1 52538U 22051F   24137.49336935  .00047406  00000-0  29739-2 0  9995,2 52538  53.2153 221.8365 0000895  71.7993 288.3097 15.08875408111476,6917.772,95.435,540.256,539.018,0.0
52538.0,STARLINK-3933,PAYLOAD,2024-05-16 15:01:13,15.08886538,9.18e-05,53.2152,221.2415,71.1195,288.9897,0.003417,0.00054584,0.0,0 STARLINK-3933,1 52538U 22051F   24137.62584652  .00054584  00000-0  34170-2 0  9991,2 52538  53.2152 221.2415 0000918  71.1195 288.9897 15.08886538111491,6917.738,95.435,540.238,538.968,0.0
52538.0,STARLINK-3933,PAYLOAD,2024-05-16 22:58:09,15.08851905,0.0001993,53.2168,219.7531,85.8349,274.2871,0.00087924,0.00013737,0.0,0 STARLINK-3933,1 52538U 22051F   24137.95705261  .00013737  00000-0  87924-3 0  9999,2 52538  53.2168 219.7531 0001993  85.8349 274.2871 15.08851905111610,6917.844,95.437,541.088,538.33,0.0
52538.0,STARLINK-3933,PAYLOAD,2024-05-17 11:41:14,15.08846182,0.0001187,53.2157,217.3761,82.6439,277.4689,0.0015967,0.00025219,0.0,0 STARLINK-3933,1 52538U 22051F   24138.48697322  .00025219  00000-0  15967-2 0  9991,2 52538  53.2157 217.3761 0001187  82.6439 277.4689 15.08846182111698,6917.861,95.437,540.548,538.905,0.0
52538.0,STARLINK-3933,PAYLOAD,2024-05-18 00:24:19,15.08855833,0.0001434,53.2158,214.9957,115.109,245.0051,0.0026822,0.00042677,0.0,0 STARLINK-3933,1 52538U 22051F   24139.01689411  .00042677  00000-0  26822-2 0  9990,2 52538  53.2158 214.9957 0001434 115.1090 245.0051 15.08855833111775,6917.832,95.437,540.689,538.705,0.0
52538.0,STARLINK-3933,PAYLOAD,2024-05-18 11:32:01,15.08867837,0.0001298,53.2157,212.9156,95.5521,264.5619,0.0026816,0.00042681,0.0,0 STARLINK-3933,1 52538U 22051F   24139.48057202  .00042681  00000-0  26816-2 0  9996,2 52538  53.2157 212.9156 0001298  95.5521 264.5619 15.08867837111842,6917.795,95.436,540.558,538.762,0.0
52538.0,STARLINK-3933,PAYLOAD,2024-05-18 14:42:47,15.08871905,0.0001425,53.2166,212.3207,93.8862,266.2293,0.0020986,0.00033299,0.0,0 STARLINK-3933,1 52538U 22051F   24139.61304964  .00033299  00000-0  20986-2 0  9998,2 52538  53.2166 212.3207 0001425  93.8862 266.2293 15.08871905111796,6917.783,95.436,540.634,538.662,0.0
52538.0,STARLINK-3933,PAYLOAD,2024-05-19 11:22:49,15.08825224,0.0001209,53.216,208.4552,103.6357,256.4769,2.0807e-06,-2.55e-06,0.0,0 STARLINK-3933,1 52538U 22051F   24140.47418212 -.00000255  00000-0  20807-5 0  9998,2 52538  53.2160 208.4552 0001209 103.6357 256.4769 15.08825224111925,6917.926,95.438,540.627,538.954,0.0
52538.0,STARLINK-3933,PAYLOAD,2024-05-20 09:38:13,15.08858147,0.0001056,53.2159,204.2938,87.0911,273.0202,0.001024,0.00016055,0.0,0 STARLINK-3933,1 52538U 22051F   24141.40154082  .00016055  00000-0  10240-2 0  9995,2 52538  53.2159 204.2938 0001056  87.0911 273.0202 15.08858147112137,6917.825,95.436,540.42,538.959,0.0
52538.0,STARLINK-3933,PAYLOAD,2024-05-21 09:28:59,15.08854993,0.00011,53.2162,199.834,101.8975,258.214,0.00059024,9.122e-05,0.0,0 STARLINK-3933,1 52538U 22051F   24142.39513810  .00009122  00000-0  59024-3 0  9993,2 52538  53.2162 199.8340 0001100 101.8975 258.2140 15.08854993112289,6917.835,95.437,540.461,538.939,0.0
52538.0,STARLINK-3933,PAYLOAD,2024-05-22 10:55:10,15.08846479,0.0001246,53.2157,195.073,79.1036,281.0096,0.00030341,4.545e-05,0.0,0 STARLINK-3933,1 52538U 22051F   24143.45498009  .00004545  00000-0  30341-3 0  9998,2 52538  53.2157 195.0730 0001246  79.1036 281.0096 15.08846479112442,6917.861,95.437,540.588,538.864,0.0
52538.0,STARLINK-3933,PAYLOAD,2024-05-23 02:49:01,15.08842686,0.0001226,53.2152,192.1013,86.8949,273.2184,0.00022751,3.335e-05,0.0,0 STARLINK-3933,1 52538U 22051F   24144.11738172  .00003335  00000-0  22751-3 0  9992,2 52538  53.2152 192.1013 0001226  86.8949 273.2184 15.08842686112543,6917.872,95.437,540.585,538.889,0.0
52538.0,STARLINK-3933,PAYLOAD,2024-05-23 10:45:57,15.08845434,0.0001455,53.2163,190.6153,87.5819,272.534,0.00030736,4.608e-05,0.0,0 STARLINK-3933,1 52538U 22051F   24144.44858204  .00004608  00000-0  30736-3 0  9993,2 52538  53.2163 190.6153 0001455  87.5819 272.5340 15.08845434112529,6917.864,95.437,540.735,538.722,0.0
52538.0,STARLINK-3933,PAYLOAD,2024-05-24 09:01:20,15.08851635,0.0001485,53.2154,186.452,75.2681,284.8475,0.00022795,3.343e-05,0.0,0 STARLINK-3933,1 52538U 22051F   24145.37593732  .00003343  00000-0  22795-3 0  9999,2 52538  53.2154 186.4520 0001485  75.2681 284.8475 15.08851635112732,6917.845,95.437,540.737,538.683,0.0
52538.0,STARLINK-3933,PAYLOAD,2024-05-24 20:09:03,15.08845603,0.0001738,53.2153,184.3714,63.7811,296.3359,9.3097e-05,1.194e-05,0.0,0 STARLINK-3933,1 52538U 22051F   24145.83961935  .00001194  00000-0  93097-4 0  9990,2 52538  53.2153 184.3714 0001738  63.7811 296.3359 15.08845603112806,6917.863,95.437,540.931,538.526,0.0
52538.0,STARLINK-3933,PAYLOAD,2024-05-25 08:52:08,15.08831995,0.0001548,53.2163,181.9909,84.1993,275.9176,-7.8643e-05,-1.539e-05,0.0,0 STARLINK-3933,1 52538U 22051F   24146.36954734 -.00001539  00000-0 -78643-4 0  9993,2 52538  53.2163 181.9909 0001548  84.1993 275.9176 15.08831995112880,6917.905,95.438,540.841,538.699,0.0
52538.0,STARLINK-3933,PAYLOAD,2024-05-26 08:42:55,15.08845027,0.0001466,53.2163,177.5285,89.5448,270.5712,7.4102e-05,8.92e-06,0.0,0 STARLINK-3933,1 52538U 22051F   24147.36314250  .00000892  00000-0  74102-4 0  9992,2 52538  53.2163 177.5285 0001466  89.5448 270.5712 15.08845027113037,6917.865,95.437,540.744,538.716,0.0
52538.0,STARLINK-3933,PAYLOAD,2024-05-27 05:22:56,15.08836178,0.0001157,53.2152,173.6647,73.847,286.265,0.00035916,5.432e-05,0.0,0 STARLINK-3933,1 52538U 22051F   24148.22426773  .00005432  00000-0  35916-3 0  9996,2 52538  53.2152 173.6647 0001157  73.8470 286.2650 15.08836178113168,6917.892,95.438,540.557,538.957,0.0
52538.0,STARLINK-3933,PAYLOAD,2024-05-27 08:33:42,15.0884301,0.0001377,53.2155,173.0695,79.5085,280.6063,0.00026501,3.933e-05,0.0,0 STARLINK-3933,1 52538U 22051F   24148.35674462  .00003933  00000-0  26501-3 0  9994,2 52538  53.2155 173.0695 0001377  79.5085 280.6063 15.08843010113111,6917.871,95.437,540.689,538.784,0.0
52538.0,STARLINK-3933,PAYLOAD,2024-05-27 18:06:01,15.08845692,0.0001456,53.2165,171.287,84.1367,275.9791,0.00017051,2.427e-05,0.0,0 STARLINK-3933,1 52538U 22051F   24148.75418164  .00002427  00000-0  17051-3 0  9990,2 52538  53.2165 171.2870 0001456  84.1367 275.9791 15.08845692113247,6917.863,95.437,540.735,538.721,0.0
52538.0,STARLINK-3933,PAYLOAD,2024-05-28 08:24:29,15.08841576,0.0001365,53.2166,168.6092,86.5852,273.5296,7.0306e-05,8.31e-06,0.0,0 STARLINK-3933,1 52538U 22051F   24149.35034494  .00000831  00000-0  70306-4 0  9997,2 52538  53.2166 168.6092 0001365  86.5852 273.5296 15.08841576113339,6917.876,95.437,540.685,538.796,0.0
52538.0,STARLINK-3933,PAYLOAD,2024-05-29 05:04:30,15.0883592,0.0001356,53.216,164.7428,87.9646,272.1502,1.3733e-05,-6.9e-07,0.0,0 STARLINK-3933,1 52538U 22051F   24150.21146909 -.00000069  00000-0  13733-4 0  9994,2 52538  53.2160 164.7428 0001356  87.9646 272.1502 15.08835920113464,6917.893,95.438,540.696,538.82,0.0
52538.0,STARLINK-3933,PAYLOAD,2024-05-29 11:26:03,15.08836755,0.000137,53.2161,163.5537,87.9277,272.1872,1.3891e-05,-6.7e-07,0.0,0 STARLINK-3933,1 52538U 22051F   24150.47642913 -.00000067  00000-0  13891-4 0  9991,2 52538  53.2161 163.5537 0001370  87.9277 272.1872 15.08836755113433,6917.89,95.438,540.703,538.808,0.0
